ORBCOMM FM103           
1 40091U 14040F   25096.92327379  .00001667  00000+0  39584-3 0  9998
2 40091  47.0065 354.3242 0002299 308.5332  51.5347 14.58017577553707
ORBCOMM FM114           
1 41179U 15081A   25096.87856265  .00001779  00000+0  41926-3 0  9994
2 41179  47.0020 263.6245 0001659   8.9237 351.1678 14.58072720494111
ORBCOMM FM119           
1 41180U 15081B   25096.93160841  .00001460  00000+0  35133-3 0  9991
2 41180  46.9997 172.6613 0000130 123.7584 236.3314 14.57994354495326
ORBCOMM FM105           
1 41181U 15081C   25097.49623304  .00000645  00000+0  22725-3 0  9999
2 41181  47.0006 168.0900 0001732 330.9931  29.0853 14.45142849490630
ORBCOMM FM110           
1 41182U 15081D   25096.85448471  .00002223  00000+0  51600-3 0  9997
2 41182  47.0007 263.1080 0002367 204.5418 155.5355 14.57974187493938
ORBCOMM FM118           
1 41183U 15081E   25096.83980208  .00001847  00000+0  43443-3 0  9992
2 41183  47.0040 263.6394 0002740 182.8928 177.1942 14.58024064494033
ORBCOMM FM112           
1 41184U 15081F   25096.90785686  .00002025  00000+0  47356-3 0  9990
2 41184  46.9974 171.9328 0000927 347.8509  12.2353 14.57945307495261
ORBCOMM FM113           
1 41185U 15081G   25096.61083951  .00002020  00000+0  47203-3 0  9991
2 41185  46.9989 173.6522 0000469 350.7127   9.3750 14.57982315495205
